GPS BIIA-23 (PRN 18)    
1 22877U 93068A   18200.44144924 -.00000080  00000-0  00000+0 0  9993
2 22877  54.4467  82.1799 0145836  75.7009 212.9720  2.00567310181196
GPS BIIR-2  (PRN 13)    
1 24876U 97035A   18200.43430806  .00000067  00000-0  00000+0 0  9992
2 24876  55.4869 211.5017 0030619  87.3445 273.0353  2.00564696153799
GPS BIIR-3  (PRN 11)    
1 25933U 99055A   18200.28696309 -.00000090  00000-0  00000+0 0  9993
2 25933  51.9096  60.2909 0167743 102.4712  77.4073  2.00566444137601
GPS BIIR-4  (PRN 20)    
1 26360U 00025A   18200.50258076 -.00000005  00000-0  00000+0 0  9993
2 26360  53.2110 138.3197 0038181 119.1874 263.4942  2.00563557133308
GPS BIIR-5  (PRN 28)    
1 26407U 00040A   18200.42328819 -.00000087  00000-0  00000+0 0  9996
2 26407  56.4632 329.6358 0196970 272.9143  30.8839  2.00562841131984
GPS BIIR-6  (PRN 14)    
1 26605U 00071A   18200.32187267  .00000067  00000-0  00000+0 0  9996
2 26605  55.0603 209.0850 0102626 248.9714 247.1261  2.00571301129572
GPS BIIR-8  (PRN 16)    
1 27663U 03005A   18200.33696854 -.00000086  00000-0  00000+0 0  9991
2 27663  56.5272 329.3983 0098733  28.8876 332.6150  2.00564998113344
GPS BIIR-9  (PRN 21)    
1 27704U 03010A   18200.30703865 -.00000080  00000-0  00000+0 0  9995
2 27704  54.1176  81.7612 0245676 271.6500  27.4916  2.00564096112142
GPS BIIR-10 (PRN 22)    
1 28129U 03058A   18200.12937177  .00000004  00000-0  00000+0 0  9999
2 28129  53.0241 141.1838 0074971 273.4937  85.6294  2.00552541106834
GPS BIIR-11 (PRN 19)    
1 28190U 04009A   18200.37820814 -.00000080  00000-0  00000+0 0  9995
2 28190  56.1846  30.2338 0096332  70.3246 107.7287  2.00558647105012
GPS BIIR-12 (PRN 23)    
1 28361U 04023A   18200.43321715  .00000068  00000-0  00000+0 0  9999
2 28361  54.0620 203.7883 0128108 226.5365 267.9403  2.00552580103102
GPS BIIR-13 (PRN 02)    
1 28474U 04045A   18200.16674470 -.00000078  00000-0  00000+0 0  9999
2 28474  54.4852  81.3930 0181426 254.5659  46.9205  2.00551454100460
GPS BIIRM-1 (PRN 17)    
1 28874U 05038A   18200.35639227 -.00000080  00000-0  00000+0 0  9991
2 28874  56.3244  27.5487 0126118 258.3273 287.5836  2.00574175 93874
GPS BIIRM-2 (PRN 31)    
1 29486U 06042A   18200.25724271 -.00000028  00000-0  00000+0 0  9992
2 29486  55.1611 266.3841 0088012 351.3174  47.0269  2.00560554 86585
GPS BIIRM-3 (PRN 12)    
1 29601U 06052A   18199.64746625 -.00000082  00000-0  00000+0 0  9999
2 29601  56.5036 328.3419 0069412  56.6196 304.0483  2.00577656 85485
GPS BIIRM-4 (PRN 15)    
1 32260U 07047A   18199.97059382  .00000064  00000-0  00000+0 0  9991
2 32260  53.1865 199.8005 0102444  38.3970 322.3359  2.00550846 78877
GPS BIIRM-5 (PRN 29)    
1 32384U 07062A   18200.31665918 -.00000079  00000-0  00000+0 0  9991
2 32384  56.3993  28.1620 0006126  76.5116 309.2998  2.00565380 77617
GPS BIIRM-6 (PRN 07)    
1 32711U 08012A   18200.37799808 -.00000026  00000-0  00000+0 0  9995
2 32711  54.8955 265.6501 0120517 216.9735 142.2576  2.00566047 75791
GPS BIIRM-8 (PRN 05)    
1 35752U 09043A   18200.16202285  .00000010  00000-0  00000+0 0  9995
2 35752  54.3281 143.4151 0053649  34.4650 198.5368  2.00554813 65374
GPS BIIF-1  (PRN 25)    
1 36585U 10022A   18200.26129906 -.00000087  00000-0  00000+0 0  9993
2 36585  55.7928 324.8569 0072894  48.7544   0.0333  2.00570226 59629
GPS BIIF-2  (PRN 01)    
1 37753U 11036A   18200.29404642 -.00000075  00000-0  00000+0 0  9990
2 37753  55.6842  84.9533 0078602  36.6308 121.9253  2.00564468 51305
GPS BIIF-3  (PRN 24)    
1 38833U 12053A   18200.05988333 -.00000022  00000-0  00000+0 0  9990
2 38833  53.9261 262.1887 0068987  29.1484 331.3038  2.00567332 42378
GPS BIIF-4  (PRN 27)    
1 39166U 13023A   18199.91866784 -.00000081  00000-0  00000+0 0  9990
2 39166  56.0204  24.4518 0059145  23.8366 336.4672  2.00562311 37900
GPS BIIF-5  (PRN 30)    
1 39533U 14008A   18200.41724593 -.00000031  00000-0  00000+0 0  9996
2 39533  54.0693 267.5284 0036133 190.5591 169.4308  2.00558639 32275
GPS BIIF-6  (PRN 06)    
1 39741U 14026A   18199.69779239 -.00000071  00000-0  00000+0 0  9995
2 39741  55.6671  84.4999 0012560 294.7642  65.1575  2.00564901 30545
GPS BIIF-7  (PRN 09)    
1 40105U 14045A   18200.28708820  .00000068  00000-0  00000+0 0  9993
2 40105  54.5881 203.9162 0006751 109.9560 250.1332  2.00573929 29009
GPS BIIF-8  (PRN 03)    
1 40294U 14068A   18200.16148139  .00000013  00000-0  00000+0 0  9995
2 40294  55.0793 144.7069 0014576  20.6358 339.4008  2.00558320 27223
GPS BIIF-9  (PRN 26)    
1 40534U 15013A   18199.79731932 -.00000085  00000-0  00000+0 0  9998
2 40534  54.7330 323.5638 0027778   1.6299 358.3892  2.00561732 24288
GPS BIIF-10  (PRN 08)   
1 40730U 15033A   18199.95980777 -.00000082  00000-0  00000+0 0  9996
2 40730  55.5503  23.9418 0035513 333.5949  26.2543  2.00572805 22048
GPS BIIF-11  (PRN 10)   
1 41019U 15062A   18200.01036842  .00000014  00000-0  00000+0 0  9998
2 41019  55.0840 144.5168 0037292 205.2103 154.5862  2.00564338 19860
GPS BIIF-12  (PRN 32)   
1 41328U 16007A   18200.09813338  .00000067  00000-0  00000+0 0  9990
2 41328  54.8380 204.2228 0024136 219.8057 140.0336  2.00561983 17926
